OBJECT_NAME,OBJECT_ID,EPOCH,MEAN_MOTION,ECCENTRICITY,INCLINATION,RA_OF_ASC_NODE,ARG_OF_PERICENTER,MEAN_ANOMALY,EPHEMERIS_TYPE,CLASSIFICATION_TYPE,NORAD_CAT_ID,ELEMENT_SET_NO,REV_AT_EPOCH,BSTAR,MEAN_MOTION_DOT,MEAN_MOTION_DDOT
CINEMA-3 (KHUSAT-2),2013-066L,2026-07-09T13:07:30.091584,14.78344624,.0090781,97.8385,102.1569,139.0615,221.7460,0,U,39426,999,67775,.11049521E-3,.806E-5,0
TRITON-1,2013-066M,2026-07-10T06:08:22.911936,14.81786558,.00902052,97.8224,100.5361,158.0904,202.4205,0,U,39427,999,67750,.2053666E-3,.1683E-4,0
DELFI-N3XT,2013-066N,2026-07-08T17:27:12.930336,14.95307616,.00756304,97.8323,110.0195,134.0067,226.7421,0,U,39428,999,67784,.4130654E-3,.4758E-4,0
GOMX-1,2013-066Q,2026-07-10T06:27:06.499008,14.69534850,.01287493,97.6478,30.2751,4.0424,356.1791,0,U,39430,999,67330,.15286554E-3,.978E-5,0
BRITE-PL1 (LEM),2013-066R,2026-07-10T06:54:10.275552,14.51385083,.01886225,97.7977,301.9700,299.5882,58.6634,0,U,39431,999,66728,.48701986E-4,.192E-5,0
ICUBE-1,2013-066S,2026-07-09T16:22:43.844160,15.26410593,.00140495,97.5700,176.6399,247.6947,112.2802,0,U,39432,999,68784,.34038796E-3,.8812E-4,0
VELOX-PII,2013-066Y,2026-07-09T16:26:34.058688,14.93240022,.0050831,97.8750,142.0782,268.3145,91.2252,0,U,39438,999,68119,.2065797E-3,.2153E-4,0
CUBEBUG-2 (LO-74),2013-066AA,2026-07-10T07:20:24.677952,14.93948233,.00561215,97.8906,140.3858,311.9936,47.6511,0,U,39440,999,68044,.18439435E-3,.1961E-4,0
NEE-02 KRYSAOR,2013-066AB,2026-07-10T07:04:37.483392,14.86726426,.00658491,97.8892,130.3465,355.4507,4.6102,0,U,39441,999,67963,.17498287E-3,.1559E-4,0
FUNCUBE-1 (AO-73),2013-066AE,2026-07-09T20:35:35.418048,15.09776510,.00378182,97.8287,162.7825,124.9796,235.4993,0,U,39444,999,68308,.31713173E-3,.5139E-4,0
HINCUBE,2013-066AF,2026-07-09T15:22:39.722592,15.08546670,.00345431,97.7980,159.5046,132.1725,228.2445,0,U,39445,999,68291,.27835798E-3,.4339E-4,0
UWE-3,2013-066AG,2026-07-09T08:07:38.406144,14.97176779,.00475397,97.8693,146.5655,244.9963,114.6317,0,U,39446,999,68089,.17898561E-3,.2052E-4,0
SMDC ONE 2.4,2013-072H,2026-07-10T04:21:51.172992,15.18714863,.01476194,120.4919,80.8962,43.2628,317.9934,0,U,39469,999,12132,.42348717E-3,.11431E-3,0
CP8 (IPEX),2013-072K,2026-07-09T23:25:48.489024,15.08363906,.01681429,120.4696,25.0355,26.2959,334.6533,0,U,39471,999,11867,.21426113E-3,.4248E-4,0
COSMOS 2488 (RODNIK-S 7),2013-076A,2026-07-10T07:13:35.261184,12.42906507,.0020735,82.4847,154.2948,47.7083,312.5751,0,U,39483,999,56876,.75762149E-3,.115E-5,0
COSMOS 2489 (RODNIK-S 8),2013-076B,2026-07-10T06:38:34.770048,12.42879866,.00225335,82.4883,155.6963,47.5280,312.7700,0,U,39484,999,56881,-.21984488E-3,-.2E-6,0
COSMOS 2490 (RODNIK-S 9),2013-076C,2026-07-10T07:54:03.704256,12.42879175,.00228726,82.4830,153.7211,62.2449,298.0947,0,U,39485,999,56875,.30216526E-3,.52E-6,0
AIST-1 (RS41),2013-078C,2026-07-10T07:13:44.255424,14.96128086,.0016183,82.4146,248.4831,194.7044,165.3709,0,U,39492,999,67870,.51353987E-4,.605E-5,0
KAZEOSAT 1,2014-024A,2026-07-10T06:22:36.679584,14.42035938,.00012721,98.3197,263.1382,82.7266,277.4068,0,U,39731,999,64188,.2497066E-5,-.34E-6,0
COSMOS 2496 (RODNIK-S 10),2014-028A,2026-07-10T06:52:50.479104,12.42879508,.00210392,82.4451,94.2639,31.2085,329.0239,0,U,39761,999,55038,.22334063E-3,.41E-6,0
COSMOS 2497 (RODNIK-S 11),2014-028B,2026-07-10T06:16:49.328256,12.42894978,.00215002,82.4499,95.9782,26.4099,333.8071,0,U,39762,999,55038,-.43310612E-3,-.5E-6,0
COSMOS 2498 (RODNIK-S 12),2014-028C,2026-07-10T05:42:16.332192,12.42980989,.00222173,82.4459,94.4703,25.9815,334.2375,0,U,39763,999,55041,.23131041E-3,.42E-6,0
COSMOS 2499 (RS47),2014-028E,2026-07-10T06:50:09.041568,12.82903048,.02305005,82.4474,236.8432,307.5914,50.4455,0,U,39765,999,56798,.40186746E-4,.2E-6,0
HODOYOSHI-4,2014-033B,2026-07-10T07:10:12.824256,14.88179672,.00222667,97.5466,15.0074,226.7638,133.1721,0,U,40011,999,65224,.12845503E-4,.66E-6,0
UNISAT-6,2014-033C,2026-07-09T15:44:35.801088,14.88353039,.00446315,97.7900,342.9767,356.2388,3.8487,0,U,40012,999,64950,.15181008E-3,.1374E-4,0
DEIMOS-2,2014-033D,2026-07-10T07:02:50.512416,14.93788727,.00010454,97.5807,64.9682,82.0260,278.1079,0,U,40013,999,64117,.25642246E-4,.218E-5,0
BUGSAT-1 (TITA),2014-033E,2026-07-10T06:34:52.591584,15.15849719,.0029001,98.0425,285.1768,101.9577,258.4908,0,U,40014,999,65933,.26825178E-3,.5108E-4,0
SAUDISAT 4,2014-033G,2026-07-09T15:20:30.375744,14.79571960,.00447289,97.7610,336.0009,2.2228,357.9175,0,U,40016,999,64939,.53590382E-4,.355E-5,0
APRIZESAT 9,2014-033J,2026-07-09T14:32:28.813920,14.74247790,.00672461,97.9087,323.2598,127.5578,233.1765,0,U,40018,999,64686,.77297808E-4,.477E-5,0
BRITE-CA1 (TORONTO),2014-033L,2026-07-09T04:30:04.468608,14.72715027,.00780057,97.9764,318.7133,205.5751,154.1590,0,U,40020,999,64545,.1176575E-3,.733E-5,0
