1 39426U 13066L   26190.54687606  .00000806  00000-0  11050-3 0  9994
2 39426  97.8385 102.1569 0090781 139.0615 221.7460 14.78344624677757
1 39427U 13066M   26191.25582074  .00001683  00000-0  20537-3 0  9991
2 39427  97.8224 100.5361 0090205 158.0904 202.4205 14.81786558677501
1 39428U 13066N   26189.72723299  .00004758  00000-0  41307-3 0  9991
2 39428  97.8323 110.0195 0075630 134.0067 226.7421 14.95307616677847
1 39430U 13066Q   26191.26882522  .00000978  00000-0  15287-3 0  9999
2 39430  97.6478  30.2751 0128749   4.0424 356.1791 14.69534850673301
1 39431U 13066R   26191.28761893  .00000192  00000-0  48702-4 0  9996
2 39431  97.7977 301.9700 0188622 299.5882  58.6634 14.51385083667287
1 39432U 13066S   26190.68245190  .00008812  00000-0  34039-3 0  9991
2 39432  97.5700 176.6399 0014049 247.6947 112.2802 15.26410593687844
1 39438U 13066Y   26190.68511642  .00002153  00000-0  20658-3 0  9999
2 39438  97.8750 142.0782 0050831 268.3145  91.2252 14.93240022681198
1 39440U 13066AA  26191.30584118  .00001961  00000-0  18439-3 0  9990
2 39440  97.8906 140.3858 0056121 311.9936  47.6511 14.93948233680449
1 39441U 13066AB  26191.29487828  .00001559  00000-0  17498-3 0  9996
2 39441  97.8892 130.3465 0065849 355.4507   4.6102 14.86726426679639
1 39444U 13066AE  26190.85804882  .00005139  00000-0  31713-3 0  9997
2 39444  97.8287 162.7825 0037818 124.9796 235.4993 15.09776510683084
1 39445U 13066AF  26190.64073753  .00004339  00000-0  27836-3 0  9992
2 39445  97.7980 159.5046 0034543 132.1725 228.2445 15.08546670682912
1 39446U 13066AG  26190.33863896  .00002052  00000-0  17899-3 0  9992
2 39446  97.8693 146.5655 0047540 244.9963 114.6317 14.97176779680891
1 39469U 13072H   26191.18184228  .00011431  00000-0  42349-3 0  9992
2 39469 120.4919  80.8962 0147619  43.2628 317.9934 15.18714863121324
1 39471U 13072K   26190.97625566  .00004248  00000-0  21426-3 0  9997
2 39471 120.4696  25.0355 0168143  26.2959 334.6533 15.08363906118671
1 39483U 13076A   26191.30110256  .00000115  00000-0  75762-3 0  9998
2 39483  82.4847 154.2948 0020735  47.7083 312.5751 12.42906507568763
1 39484U 13076B   26191.27679132 -.00000020  00000-0 -21984-3 0  9992
2 39484  82.4883 155.6963 0022534  47.5280 312.7700 12.42879866568811
1 39485U 13076C   26191.32920954  .00000052  00000-0  30217-3 0  9992
2 39485  82.4830 153.7211 0022873  62.2449 298.0947 12.42879175568751
1 39492U 13078C   26191.30120666  .00000605  00000-0  51354-4 0  9992
2 39492  82.4146 248.4831 0016183 194.7044 165.3709 14.96128086678706
1 39731U 14024A   26191.26570231 -.00000034  00000-0  24971-5 0  9995
2 39731  98.3197 263.1382 0001272  82.7266 277.4068 14.42035938641880
1 39761U 14028A   26191.28669536  .00000041  00000-0  22334-3 0  9997
2 39761  82.4451  94.2639 0021039  31.2085 329.0239 12.42879508550384
1 39762U 14028B   26191.26168204 -.00000050  00000-0 -43311-3 0  9992
2 39762  82.4499  95.9782 0021500  26.4099 333.8071 12.42894978550383
1 39763U 14028C   26191.23768903  .00000042  00000-0  23131-3 0  9999
2 39763  82.4459  94.4703 0022217  25.9815 334.2375 12.42980989550417
1 39765U 14028E   26191.28482687  .00000020  00000-0  40187-4 0  9995
2 39765  82.4474 236.8432 0230501 307.5914  50.4455 12.82903048567984
1 40011U 14033B   26191.29875954  .00000066  00000-0  12846-4 0  9992
2 40011  97.5466  15.0074 0022267 226.7638 133.1721 14.88179672652245
1 40012U 14033C   26190.65596992  .00001374  00000-0  15181-3 0  9991
2 40012  97.7900 342.9767 0044631 356.2388   3.8487 14.88353039649500
1 40013U 14033D   26191.29364019  .00000218  00000-0  25642-4 0  9996
2 40013  97.5807  64.9682 0001045  82.0260 278.1079 14.93788727641178
1 40014U 14033E   26191.27421981  .00005108  00000-0  26825-3 0  9993
2 40014  98.0425 285.1768 0029001 101.9577 258.4908 15.15849719659330
1 40016U 14033G   26190.63924046  .00000355  00000-0  53590-4 0  9993
2 40016  97.7610 336.0009 0044729   2.2228 357.9175 14.79571960649393
1 40018U 14033J   26190.60588905  .00000477  00000-0  77298-4 0  9998
2 40018  97.9087 323.2598 0067246 127.5578 233.1765 14.74247790646869
1 40020U 14033L   26190.18755172  .00000733  00000-0  11766-3 0  9998
2 40020  97.9764 318.7133 0078006 205.5751 154.1590 14.72715027645457
